ONEWEB-0056             
1 45159U 20008AE  26004.88764312 -.00000503  00000+0 -14766-2 0  9990
2 45159  87.8789  68.8148 0001781 109.0078 251.1242 13.10373247286790
ONEWEB-0057             
1 45160U 20008AF  26004.89524719 -.00000654  00000+0 -19101-2 0  9993
2 45160  87.8785  68.8257 0001974 102.8100 257.3248 13.10373694286969
ONEWEB-0058             
1 45161U 20008AG  26004.88198398 -.00000381  00000+0 -11287-2 0  9997
2 45161  87.8780  68.8384 0001517  97.3209 262.8090 13.10371066287033
ONEWEB-0059             
1 45162U 20008AH  26004.87851508 -.00000248  00000+0 -74817-3 0  9997
2 45162  87.8779  68.8395 0001701  98.2765 261.8555 13.10369763286930
ONEWEB-0062             
1 45163U 20008AJ  26004.90425145 -.00000236  00000+0 -71288-3 0  9992
2 45163  87.8794  68.8113 0001311  95.2321 264.8956 13.10375722286804
ONEWEB-0065             
1 45164U 20008AK  26004.93483013  .00000667  00000+0  18738-2 0  9990
2 45164  87.8781  68.8196 0002032 108.2241 251.9108 13.10370777286507
ONEWEB-0066             
1 45424U 20020A   26004.87160650  .00000251  00000+0  67330-3 0  9997
2 45424  87.8839  53.5802 0001929  93.4947 266.6402 13.11420249281277
ONEWEB-0067             
1 45425U 20020B   26004.83275202 -.00000090  00000+0 -29112-3 0  9993
2 45425  87.8839  53.4926 0001963  97.5449 262.5902 13.11414930281320
